     2.100          NAVIGATION                              RINEX VERSION / TYPE
fic2rin                                 05/17/2012 00:20:54 PGM / RUN BY / DATE
                                                            END OF HEADER
20 12  5 17  0  0  0.0  .634118914604D-04  .113686837722D-12  .000000000000D+00
     .890000000000D+02  .928125000000D+02  .490663295239D-08 -.235301960393D+01
     .485032796860D-05  .498539523687D-02  .833347439766D-05  .515370915413D+04
     .345600000000D+06  .316649675369D-07  .222002690046D-01 -.521540641785D-07
     .930688435663D+00  .203781250000D+03  .129535683809D+01 -.817141180067D-08
     .119647840956D-09  .100000000000D+01  .168800000000D+04  .000000000000D+00
     .340000000000D+01  .000000000000D+00 -.791624188423D-08  .890000000000D+02
     .338406000000D+06  .400000000000D+01
21 12  5 17  0  0  0.0 -.224139075726D-03 -.250111042988D-11  .000000000000D+00
     .610000000000D+02 -.161250000000D+02  .494806324955D-08 -.164068326182D+01
    -.955536961555D-06  .191386027727D-01  .954046845436D-05  .515361564445D+04
     .345600000000D+06  .368803739548D-06 -.974725622858D+00 -.176951289177D-06
     .931240747218D+00  .174781250000D+03 -.225354625526D+01 -.799033282943D-08
    -.393587823084D-09  .100000000000D+01  .168800000000D+04  .000000000000D+00
     .240000000000D+01  .000000000000D+00 -.111758708954D-07  .610000000000D+02
     .338406000000D+06  .400000000000D+01
22 12  5 17  0  0  0.0  .143888872117D-03  .113686837722D-12  .000000000000D+00
     .350000000000D+02  .931562500000D+02  .499806533234D-08  .275716298259D+01
     .479444861412D-05  .606639496982D-02  .841543078423D-05  .515368318558D+04
     .345600000000D+06  .447034835815D-07  .793015428619D-01 -.540167093277D-07
     .927952606231D+00  .199593750000D+03 -.201730124287D+01 -.820284168128D-08
     .220366321999D-09  .100000000000D+01  .168800000000D+04  .000000000000D+00
     .240000000000D+01  .000000000000D+00 -.167638063431D-07  .350000000000D+02
     .338406000000D+06  .400000000000D+01
23 12  5 17  0  0  0.0  .204641837627D-03 -.363797880709D-11  .000000000000D+00
     .790000000000D+02  .531250000000D+01  .470412451710D-08  .862879215891D+00
     .311061739922D-06  .785651069600D-02  .240281224251D-05  .515363368416D+04
     .345600000000D+06  .409781932831D-07  .112716783975D+01  .147148966789D-06
     .960176454906D+00  .332000000000D+03 -.301326438980D+01 -.843142263117D-08
    -.210723063176D-10  .100000000000D+01  .168800000000D+04  .000000000000D+00
     .340000000000D+01  .000000000000D+00 -.200234353542D-07  .790000000000D+02
     .338406000000D+06  .400000000000D+01
25 12  5 17  0  0  0.0  .340929254889D-04  .454747350886D-12  .000000000000D+00
     .200000000000D+02  .353125000000D+01  .440375486264D-08 -.214537804420D+01
     .188127160072D-06  .165598397143D-02  .962987542152D-05  .515371530151D+04
     .345600000000D+06  .912696123123D-07 -.308445420406D+01 -.279396772385D-07
     .968849571011D+00  .198250000000D+03  .663289254443D+00 -.788997150613D-08
     .481805783431D-09  .100000000000D+01  .168800000000D+04  .000000000000D+00
     .240000000000D+01  .000000000000D+00  .558793544769D-08  .200000000000D+02
     .338406000000D+06  .400000000000D+01
26 12  5 17  0  0  0.0 -.399032142013D-03  .909494701773D-11  .000000000000D+00
     .180000000000D+02 -.105625000000D+02  .435089551798D-08  .715255883336D+00
    -.653788447380D-06  .209413524717D-01  .348314642906D-05  .515365880203D+04
     .345600000000D+06 -.271946191788D-06  .119971542339D+01  .316649675369D-07
     .983248323188D+00  .327437500000D+03  .119456160834D+01 -.853285542768D-08
    -.196793911542D-09  .100000000000D+01  .168800000000D+04  .000000000000D+00
     .240000000000D+01  .000000000000D+00 -.605359673500D-08  .180000000000D+02
     .338406000000D+06  .400000000000D+01
27 12  5 17  0  0  0.0  .388690270483D-03  .397903932026D-11  .000000000000D+00
     .190000000000D+03 -.951875000000D+02  .396516516504D-08  .160727631326D+01
    -.508502125740D-05  .217024025042D-01  .820495188236D-05  .515373572922D+04
     .345600000000D+06  .497326254845D-06  .212401505880D+01 -.115483999252D-06
     .981909580521D+00  .230281250000D+03 -.108467584369D+01 -.763103214883D-08
    -.231081054025D-09  .100000000000D+01  .168800000000D+04  .000000000000D+00
     .240000000000D+01  .000000000000D+00 -.419095158577D-08  .190000000000D+03
     .338406000000D+06  .400000000000D+01
28 12  5 17  0  0  0.0  .144784804434D-03  .397903932026D-11  .000000000000D+00
     .760000000000D+02  .145312500000D+02  .409731352670D-08  .267804787839D+01
     .661239027977D-06  .178435103735D-01  .894442200661D-05  .515362948799D+04
     .345600000000D+06  .150874257088D-06 -.302564279945D+01 -.169500708580D-06
     .979194053466D+00  .213031250000D+03 -.182831179941D+01 -.746388232923D-08
     .383944564261D-09  .100000000000D+01  .168800000000D+04  .000000000000D+00
     .240000000000D+01  .000000000000D+00 -.107102096081D-07  .760000000000D+02
     .338406000000D+06  .400000000000D+01
30 12  5 17  0  0  0.0 -.184348784387D-03 -.201225702767D-10  .000000000000D+00
     .330000000000D+02 -.446875000000D+01  .450875923649D-08  .197782415711D+01
    -.344589352608D-06  .110593953868D-01  .986643135548D-05  .515365444565D+04
     .345600000000D+06  .134110450745D-06  .310798280853D+01 -.199303030968D-06
     .960091615898D+00  .188406250000D+03  .156124394572D+01 -.777818113532D-08
     .374301305437D-09  .100000000000D+01  .168800000000D+04  .000000000000D+00
     .965000000000D+01  .000000000000D+00 -.419095158577D-08  .330000000000D+02
     .338406000000D+06  .400000000000D+01
31 12  5 17  0  0  0.0  .242882873863D-03  .420641299570D-11  .000000000000D+00
     .940000000000D+02 -.848125000000D+02  .405945480687D-08 -.735280819489D+00
    -.469759106636D-05  .779033685103D-02  .838562846184D-05  .515365097046D+04
     .345600000000D+06 -.931322574615D-07  .217954936600D+01 -.800937414169D-07
     .980803781226D+00  .229218750000D+03 -.862147167296D+00 -.793640201157D-08
    -.360729311538D-10  .100000000000D+01  .168800000000D+04  .000000000000D+00
     .240000000000D+01  .000000000000D+00 -.130385160446D-07  .940000000000D+02
     .338406000000D+06  .400000000000D+01
32 12  5 17  0  0  0.0 -.444495584816D-03 -.397903932026D-11  .000000000000D+00
     .750000000000D+02  .837187500000D+02  .460769192886D-08 -.149444125748D+00
     .433996319771D-05  .118037874345D-01  .756978988647D-05  .515368595123D+04
     .345600000000D+06  .707805156708D-07  .154245226853D+00 -.225380063057D-06
     .952170878562D+00  .232125000000D+03 -.579693314096D+00 -.830856037060D-08
     .173578658819D-09  .100000000000D+01  .168800000000D+04  .000000000000D+00
     .240000000000D+01  .000000000000D+00 -.279396772385D-08  .750000000000D+02
     .338406000000D+06  .400000000000D+01
30 12  5 16 23 59 44.0 -.184324104339D-03 -.188720150618D-10  .000000000000D+00
     .140000000000D+02 -.446875000000D+01  .450875923649D-08  .197548983140D+01
    -.344589352608D-06  .110593945719D-01  .986643135548D-05  .515365444946D+04
     .345584000000D+06  .134110450745D-06  .310798293288D+01 -.201165676117D-06
     .960091618824D+00  .188406250000D+03  .156124448847D+01 -.777818113532D-08
     .374658463172D-09  .100000000000D+01  .168800000000D+04  .000000000000D+00
     .340000000000D+01  .000000000000D+00 -.419095158577D-08  .140000000000D+02
     .341136000000D+06  .400000000000D+01
23 12  5 16 23 59 44.0  .204640440643D-03 -.375166564481D-11  .000000000000D+00
     .160000000000D+02  .531250000000D+01  .470412451710D-08  .860544844827D+00
     .311061739922D-06  .785651127808D-02  .240467488766D-05  .515363368797D+04
     .345584000000D+06  .409781932831D-07  .112716800213D+01  .149011611938D-06
     .960176457832D+00  .332000000000D+03 -.301326386169D+01 -.843142263117D-08
    -.210723063176D-10  .100000000000D+01  .168800000000D+04  .000000000000D+00
     .240000000000D+01  .000000000000D+00 -.200234353542D-07  .160000000000D+02
     .341826000000D+06  .400000000000D+01
15 12  5 16 23 59 44.0 -.913650728762D-04 -.113686837722D-12  .000000000000D+00
     .800000000000D+01  .459375000000D+01  .510806991447D-08  .128033983186D+01
     .253319740295D-06  .437845161650D-02  .222399830818D-05  .515355700493D+04
     .345584000000D+06 -.260770320892D-07  .109159165285D+01  .800937414169D-07
     .945463864376D+00  .327812500000D+03  .551308811996D-01 -.861750181068D-08
    -.182150444440D-10  .100000000000D+01  .168800000000D+04  .000000000000D+00
     .240000000000D+01  .000000000000D+00 -.102445483208D-07  .800000000000D+01
     .344706000000D+06  .400000000000D+01
 1 12  5 16 23 59 44.0  .256854109466D-03  .193267624127D-11  .000000000000D+00
     .100000000000D+01 -.157500000000D+02  .441768401427D-08 -.254939058824D+00
    -.994652509689D-06  .687833409756D-03  .956282019615D-05  .515365576363D+04
     .345584000000D+06  .149011611938D-07 -.984212102396D+00  .502914190292D-07
     .959925315760D+00  .194000000000D+03  .312627359282D+00 -.794425948172D-08
    -.516807241382D-09  .100000000000D+01  .168800000000D+04  .000000000000D+00
     .240000000000D+01  .000000000000D+00  .838190317154D-08  .100000000000D+01
     .345246000000D+06  .400000000000D+01
